BEIDOU-3 G1             
1 43683U 18085A   26063.78462708 -.00000288  00000+0  00000+0 0  9992
2 43683   2.8116 100.3760 0001365  23.2646 101.3833  1.00268480 27017
COSMOS 2529 [GLONASS-M] 
1 43687U 18086A   26058.37448306  .00000008  00000+0  00000+0 0  9993
2 43687  64.2955 196.2992 0007959 253.0448 106.8346  2.13101880 56941
BEIDOU-3 M17            
1 43706U 18093A   26061.46828306 -.00000026  00000+0  00000+0 0  9990
2 43706  54.1714 185.9163 0006994 297.4131  70.7484  1.86228347 49556
BEIDOU-3 M18            
1 43707U 18093B   26061.31825568 -.00000028  00000+0  00000+0 0  9994
2 43707  54.1724 185.9133 0006020 341.6195  18.3110  1.86226384 49549
NAVSTAR 77 (USA 289)    
1 43873U 18109A   26063.55033128  .00000012  00000+0  00000+0 0  9999
2 43873  55.6151  96.3135 0037913 198.3129 333.9774  2.00556803 52971
BEIDOU-3 IGSO-1         
1 44204U 19023A   26063.82970532 -.00000208  00000+0  00000+0 0  9991
2 44204  58.5544  38.7210 0026002 236.4823 305.2336  1.00270861  6166
BEIDOU-2 G8             
1 44231U 19027A   26063.42864138 -.00000263  00000+0  00000+0 0  9996
2 44231   1.3928  74.2820 0011711 280.8825 105.6990  1.00247794 25030
COSMOS 2534 [GLONASS-M] 
1 44299U 19030A   26063.82267120  .00000008  00000+0  00000+0 0  9992
2 44299  64.3687 196.1275 0009608 279.9650  74.0554  2.13102294 52697
BEIDOU-3 IGSO-2         
1 44337U 19035A   26057.68879618 -.00000176  00000+0  00000+0 0  9995
2 44337  55.2338 159.8353 0038734 206.4752 153.7223  1.00247364 24561
NAVSTAR 78 (USA 293)    
1 44506U 19056A   26063.18852645 -.00000099  00000+0  00000+0 0  9993
2 44506  55.6848 335.3179 0058028 198.1482 333.1946  2.00568296 47967
BEIDOU-3 M24            
1 44542U 19061A   26062.99913500 -.00000010  00000+0  00000+0 0  9998
2 44542  54.3992 186.2751 0008489  19.7399 340.2521  1.86228942 43837
BEIDOU-3 M23            
1 44543U 19061B   26062.31966779 -.00000018  00000+0  00000+0 0  9999
2 44543  54.3976 186.2660 0005077  14.2210 162.4807  1.86227170 43823
EUTELSAT 5 WEST B       
1 44624U 19067A   26063.32128137 -.00000054  00000+0  00000+0 0  9995
2 44624   0.0952 310.1510 0003197  41.8937 280.6517  1.00272617 23382
BEIDOU-3 IGSO-3         
1 44709U 19073A   26063.00235588 -.00000158  00000+0  00000+0 0  9995
2 44709  54.9790 282.0342 0040524 188.9597 171.0210  1.00269449 23409
BEIDOU-3 M22            
1 44793U 19078A   26063.37544912 -.00000060  00000+0  00000+0 0  9999
2 44793  54.0307 303.5169 0007273  35.6258 324.4804  1.86231851 42694
BEIDOU-3 M21            
1 44794U 19078B   26062.97806659 -.00000058  00000+0  00000+0 0  9991
2 44794  54.0042 303.4937 0005911  39.9322 320.1697  1.86227541 42693
COSMOS 2544 [GLONASS-M] 
1 44850U 19088A   26063.38403184  .00000015  00000+0  00000+0 0  9999
2 44850  65.5058  77.2275 0015759 259.6012 100.2648  2.13101811 48487
